STARLINK-32290          
1 60359U 24138E   26068.89009837  .00004912  00000+0  17799-3 0  9998
2 60359  53.1597 309.0077 0000484 123.8936 236.2111 15.30174129 71680
KUIPER-00209            
1 67776U 26030N   26068.61786546  .00035298  00000+0  11963-2 0  9997
2 67776  51.8838 220.0775 0012191  59.1967 301.0215 15.30161950  5077
